ORBCOMM FM37 [-]        
1 33064U 08031E   24045.56372837  .00003880  00000+0  58826-3 0  9994
2 33064  48.4394 139.3996 0005011  83.9710 289.6501 14.75895356841787
ORBCOMM FM40 [-]        
1 33065U 08031F   24045.49856442  .00004893  00000+0  71360-3 0  9999
2 33065  48.4418 129.8766 0006226  92.8295 280.7706 14.77109442841808
ORBCOMM FM109 [+]       
1 40086U 14040A   24045.61833047  .00001984  00000+0  48093-3 0  9992
2 40086  47.0031 160.4107 0002744 237.4687 122.5933 14.56312441509806
ORBCOMM FM107 [+]       
1 40087U 14040B   24045.58413478  .00001991  00000+0  48247-3 0  9990
2 40087  47.0047 161.5262 0002059 216.5780 143.4965 14.56312439509870
ORBCOMM FM106 [-]       
1 40088U 14040C   24045.22972617  .00003583  00000+0  66954-3 0  9991
2 40088  47.0617  22.6727 0018748 317.7078  42.2365 14.66601896511639
ORBCOMM FM111 [-]       
1 40089U 14040D   24045.36912441  .00004684  00000+0  61799-3 0  9991
2 40089  47.0040 293.0992 0032965  20.3414 339.8786 14.81058992517645
ORBCOMM FM104 [-]       
1 40090U 14040E   24045.40071420  .00002037  00000+0  50770-3 0  9998
2 40090  47.0038 190.3629 0016775 136.1981 224.0236 14.54865575509409
